SKYKRAFT-1A             
1 55054U 23001AX  26068.71064616  .00008177  00000+0  30069-3 0  9991
2 55054  97.3349 127.6290 0011277 121.5092 238.7251 15.28083228176529
STARLINK-32628          
1 62122U 24222J   26068.52081734  .00022673  00000+0  83082-3 0  9990
2 62122  43.0014 137.0954 0001489 276.6665  83.4017 15.27584243 72896
